[{"OBJECT_NAME":"STARLINK-11434 [DTC]","OBJECT_ID":"2024-249M","EPOCH":"2026-03-09T14:22:05.267712","MEAN_MOTION":15.70813205,"ECCENTRICITY":0.0001625,"INCLINATION":42.9992,"RA_OF_ASC_NODE":168.4399,"ARG_OF_PERICENTER":272.1814,"MEAN_ANOMALY":87.8867,"EPHEMERIS_TYPE":0,"CLASSIFICATION_TYPE":"U","NORAD_CAT_ID":62420,"ELEMENT_SET_NO":999,"REV_AT_EPOCH":6946,"BSTAR":0.0020142,"MEAN_MOTION_DOT":0.0026615,"MEAN_MOTION_DDOT":0},{"OBJECT_NAME":"CZ-6A DEB","OBJECT_ID":"2024-140AY","EPOCH":"2026-03-09T23:18:41.702400","MEAN_MOTION":15.62067616,"ECCENTRICITY":0.0034385,"INCLINATION":89.347,"RA_OF_ASC_NODE":305.7787,"ARG_OF_PERICENTER":51.1175,"MEAN_ANOMALY":309.3152,"EPHEMERIS_TYPE":0,"CLASSIFICATION_TYPE":"U","NORAD_CAT_ID":60647,"ELEMENT_SET_NO":999,"REV_AT_EPOCH":8292,"BSTAR":0.0060093898,"MEAN_MOTION_DOT":0.00575832,"MEAN_MOTION_DDOT":0}]
